[{"OBJECT_NAME":"IRIDIUM 139","OBJECT_ID":"2017-061J","EPOCH":"2026-03-09T23:30:10.706112","MEAN_MOTION":14.34217511,"ECCENTRICITY":0.00020273,"INCLINATION":86.3918,"RA_OF_ASC_NODE":66.7885,"ARG_OF_PERICENTER":90.2934,"MEAN_ANOMALY":269.8494,"EPHEMERIS_TYPE":0,"CLASSIFICATION_TYPE":"U","NORAD_CAT_ID":42963,"ELEMENT_SET_NO":999,"REV_AT_EPOCH":44062,"BSTAR":-3.48826e-7,"MEAN_MOTION_DOT":1.9e-7,"MEAN_MOTION_DDOT":0},{"OBJECT_NAME":"CZ-6A DEB","OBJECT_ID":"2024-140SN","EPOCH":"2026-03-09T11:07:25.042656","MEAN_MOTION":14.44311038,"ECCENTRICITY":0.00864393,"INCLINATION":88.4216,"RA_OF_ASC_NODE":243.5275,"ARG_OF_PERICENTER":339.9379,"MEAN_ANOMALY":19.8432,"EPHEMERIS_TYPE":0,"CLASSIFICATION_TYPE":"U","NORAD_CAT_ID":61277,"ELEMENT_SET_NO":999,"REV_AT_EPOCH":8064,"BSTAR":0.0014574275,"MEAN_MOTION_DOT":5.262e-5,"MEAN_MOTION_DDOT":0}]
